*******************************************************************************
Ephemeris / WWW_USER Fri Apr 12 18:03:57 2019 Pasadena, USA      / Horizons    
*******************************************************************************
Target body name: Jupiter (599)                   {source: jup341}
Center body name: Earth (399)                     {source: DE431mx}
Center-site name: (user defined site below)
*******************************************************************************
Start time      : A.D. 1900-Jan-01 00:00:00.0000 UT      
Stop  time      : A.D. 2100-Jan-01 00:00:00.0000 UT      
Step-size       : 14400 minutes
*******************************************************************************
Target pole/equ : IAU_JUPITER                     {West-longitude positive}
Target radii    : 71492.0 x 71492.0 x 66854.0 km  {Equator, meridian, pole}    
Center geodetic : 279.000000,29.0000000,0.0100000 {E-lon(deg),Lat(deg),Alt(km)}
Center cylindric: 279.000000,5582.84695,3073.9060 {E-lon(deg),Dxy(km),Dz(km)}
Center pole/equ : High-precision EOP model        {East-longitude positive}
Center radii    : 6378.1 x 6378.1 x 6356.8 km     {Equator, meridian, pole}    
Target primary  : Sun
Vis. interferer : MOON (R_eq= 1737.400) km        {source: DE431mx}
Rel. light bend : Sun, EARTH                      {source: DE431mx}
Rel. lght bnd GM: 1.3271E+11, 3.9860E+05 km^3/s^2                              
Atmos refraction: YES (Earth refraction model)
RA format       : DEG
Time format     : CAL 
EOP file        : eop.190411.p190703                                           
EOP coverage    : DATA-BASED 1962-JAN-20 TO 2019-APR-11. PREDICTS-> 2019-JUL-02
Units conversion: 1 au= 149597870.700 km, c= 299792.458 km/s, 1 day= 86400.0 s 
Table cut-offs 1: Elevation (-90.0deg=NO ),Airmass (>38.000=NO), Daylight (NO )
Table cut-offs 2: Solar elongation (  0.0,180.0=NO ),Local Hour Angle( 0.0=NO )
Table cut-offs 3: RA/DEC angular rate (     0.0=NO )                           
********************************************************************************
 Date__(UT)__HR:MN     R.A._(ICRF/J2K)_DEC R.A._(r-appar)_DEC. Azi_(r-appr)_Elev
********************************************************************************
$$SOE
 1920-Oct-23 00:00 Am  164.40057   7.68174 163.78323   8.60435 314.0161 -40.3242
 1920-Nov-02 00:00     165.99367   7.05555 165.31391   8.02810 322.6717 -45.6381
 1920-Nov-12 00:00     167.42841   6.49328 166.65963   7.51614 333.4344 -50.0408
 1920-Nov-22 00:00  m  168.67683   6.00863 167.78778   7.07173 346.5146 -53.0914
 1920-Dec-02 00:00     169.71322   5.61413 168.67866   6.69188   1.4522 -54.2987
 1920-Dec-12 00:00     170.51090   5.32242 169.32687   6.37944  16.8968 -53.3184
 1920-Dec-22 00:00  m  171.04384   5.14482 169.73173   6.15249  31.2135 -50.1458
 1921-Jan-01 00:00 A   171.29398   5.08887 169.88693   6.03586  43.4284 -45.0851
 1921-Jan-11 00:00 Am  171.24825   5.15916 169.77616   6.04817  53.4432 -38.5429
 1921-Jan-21 00:00 Am  170.90619   5.35372 169.39067   6.19363  61.6245 -30.8823
 1921-Jan-31 00:00 A   170.28574   5.66246 168.74113   6.46315  68.4368 -22.3881
 1921-Feb-10 00:00 Nm  169.41975   6.06807 167.85525   6.83852  74.2943 -13.2787
 1921-Feb-20 00:00 Nm  168.36388   6.54345 166.78546   7.29143  79.5340  -3.7398
 1921-Mar-02 00:00 N   167.19140   7.05507 166.04182   7.55110  84.4362   5.5647
 1921-Mar-12 00:00 Nm  165.98381   7.56674 164.91314   8.01602  89.2586  15.3748
 1921-Mar-22 00:00 Nm  164.82977   8.04143 163.77875   8.47705  94.2741  25.1964
 1921-Apr-01 00:00 C   163.80909   8.44789 162.76625   8.87644  99.8246  34.8195
 1921-Apr-11 00:00 Cm  162.98680   8.76204 161.94823   9.18626 106.4108  44.0679
 1921-Apr-21 00:00 Cm  162.41285   8.96725 161.37726   9.38874 114.8489  52.7199
 1921-May-01 00:00 C   162.11363   9.05628 161.08060   9.47629 126.5436  60.4277
 1921-May-11 00:00 *m  162.09972   9.02735 161.06922   9.44704 143.6745  66.5352
 1921-May-21 00:00 *m  162.36879   8.88336 161.34116   9.30374 167.7107  69.9042
 1921-May-31 00:00 *   162.90472   8.63133 161.88051   9.05324 194.4179  69.4938
 1921-Jun-10 00:00 *m  163.68817   8.27882 162.66790   8.70299 215.9927  65.7449
 1921-Jun-20 00:00 *m  164.69533   7.83491 163.67944   8.26201 230.7206  60.0559
 1921-Jun-30 00:00 *   165.89915   7.30936 164.88821   7.73997 240.7306  53.4380
 1921-Jul-10 00:00 *m  167.27594   6.71089 166.27078   7.14543 247.9297  46.3935
 1921-Jul-20 00:00 *   168.80061   6.04909 167.80205   6.48811 253.4559  39.1553
 1921-Jul-30 00:00 *   170.44936   5.33310 169.45873   5.77740 257.9555  31.8342
 1921-Aug-09 00:00 *m  172.20232   4.57126 171.22243   5.02216 261.8084  24.4875
 1921-Aug-19 00:00 *m  174.03796   3.77287 173.07493   4.23355 265.2571  17.1461
 1921-Aug-29 00:00 C   175.93745   2.94651 175.00977   3.42708 268.4663   9.8388
 1921-Sep-08 00:00 Cm  177.88388   2.10057 177.10125   2.66177 271.5597   2.6789
 1921-Sep-18 00:00 Nm  179.85801   1.24448 179.41560   1.99824 274.6443  -4.2295
 1921-Sep-28 00:00 N   181.84320   0.38684 181.39743   1.14684 277.8212 -11.4955
 1921-Oct-08 00:00 Am  183.82214  -0.46322 183.37078   0.30563 281.2028 -18.7203
 1921-Oct-18 00:00 Am  185.77492  -1.29586 185.31502  -0.51475 284.9292 -25.8904
 1921-Oct-28 00:00 A   187.68339  -2.10187 187.21102  -1.30398 289.1881 -32.9793
 1921-Nov-07 00:00  m  189.52638  -2.87119 189.03529  -2.05002 294.2553 -39.9410
 1921-Nov-17 00:00  m  191.28038  -3.59339 190.76028  -2.73981 300.5550 -46.6914
 1921-Nov-27 00:00     192.92265  -4.25865 192.35616  -3.36048 308.7525 -53.0715
 1921-Dec-07 00:00  m  194.42606  -4.85615 193.78248  -3.89961 319.8700 -58.7815
 1921-Dec-17 00:00     195.76261  -5.37541 194.99087  -4.35411 335.1828 -63.2689
 1921-Dec-27 00:00     196.90514  -5.80670 195.94230  -4.74454 355.1351 -65.6699
 1922-Jan-06 00:00 Am  197.82333  -6.13983 196.64370  -5.10048  17.1552 -65.1608
 1922-Jan-16 00:00 A   198.49071  -6.36639 197.13893  -5.40310  36.6351 -61.7022
 1922-Jan-26 00:00 A   198.88518  -6.47981 197.42771  -5.59921  51.4930 -56.0120
 1922-Feb-05 00:00 Am  198.98862  -6.47532 197.47277  -5.65954  62.4260 -48.8472
 1922-Feb-15 00:00 N   198.79706  -6.35323 197.25016  -5.58176  70.7178 -40.7088
 1922-Feb-25 00:00 N   198.31915  -6.11868 196.75643  -5.37467  77.3606 -31.8946
 1922-Mar-07 00:00 Nm  197.57968  -5.78308 196.01003  -5.05364  83.0143 -22.5980
 1922-Mar-17 00:00 N   196.62634  -5.36650 195.05568  -4.64172  88.1226 -12.9742
 1922-Mar-27 00:00 C   195.52071  -4.89499 193.95346  -4.16665  93.0124  -3.1647
 1922-Apr-06 00:00 Cm  194.33936  -4.40066 193.22077  -3.91312  97.9587   6.1755
 1922-Apr-16 00:00 C   193.16717  -3.91887 192.12146  -3.46800 103.2340  15.8181
 1922-Apr-26 00:00 C   192.08237  -3.48253 191.05808  -3.04036 109.1540  25.2201
 1922-May-06 00:00 *m  191.15699  -3.12131 190.14342  -2.68240 116.1242  34.1272
 1922-May-16 00:00 *   190.44648  -2.85757 189.43945  -2.42006 124.6885  42.2710
 1922-May-26 00:00 *   189.98596  -2.70502 188.98331  -2.26815 135.5377  49.2949
 1922-Jun-05 00:00 *m  189.79735  -2.67114 188.79803  -2.23465 149.3194  54.6999
 1922-Jun-15 00:00 *   189.88461  -2.75590 188.88795  -2.31971 165.9986  57.8880
 1922-Jun-25 00:00 *   190.24076  -2.95471 189.24617  -2.51874 184.0134  58.4168
 1922-Jul-05 00:00 *m  190.85350  -3.26040 189.86072  -2.82472 200.7763  56.3665
 1922-Jul-15 00:00 *   191.70214  -3.66259 190.71112  -3.22730 214.6134  52.3196
 1922-Jul-25 00:00 *m  192.76579  -4.15061 191.77655  -3.71576 225.3989  46.9604
 1922-Aug-04 00:00 *m  194.02315  -4.71341 193.03591  -4.27900 233.7472  40.8101
 1922-Aug-14 00:00 *   195.45036  -5.33911 194.46582  -4.90493 240.3372  34.1992
 1922-Aug-24 00:00 Cm  197.02719  -6.01687 196.04710  -5.58235 245.6936  27.3264
 1922-Sep-03 00:00 Cm  198.73323  -6.73587 197.76133  -6.29923 250.1885  20.3105
 1922-Sep-13 00:00 N   200.54756  -7.48518 199.59384  -7.04117 254.0823  13.2265
 1922-Sep-23 00:00 Nm  202.45272  -8.25506 201.55711  -7.78224 257.5587   6.1495
 1922-Oct-03 00:00 Nm  204.42960  -9.03553 203.97862  -8.32371 260.7565  -0.5059
 1922-Oct-13 00:00 A   206.45913  -9.81690 206.00997  -9.12110 263.7868  -7.6704
 1922-Oct-23 00:00 Am  208.52414 -10.59045 208.07519  -9.90875 266.7456 -14.8293
 1922-Nov-02 00:00  m  210.60411 -11.34708 210.15376 -10.67764 269.7301 -21.9809
 1922-Nov-12 00:00     212.67882 -12.07835 212.22558 -11.41858 272.8493 -29.1236
 1922-Nov-22 00:00  m  214.72798 -12.77665 214.26981 -12.12304 276.2426 -36.2546
 1922-Dec-02 00:00  m  216.72678 -13.43401 216.26078 -12.78137 280.1163 -43.3680
 1922-Dec-12 00:00     218.65112 -14.04357 218.17274 -13.38383 284.8026 -50.4426
 1922-Dec-22 00:00  m  220.47484 -14.59910 219.97518 -13.91891 290.9014 -57.4254
 1923-Jan-01 00:00 Am  222.16757 -15.09427 221.62704 -14.37098 299.6153 -64.1837
 1923-Jan-11 00:00 A   223.70059 -15.52412 223.07100 -14.72113 313.5328 -70.3589
 1923-Jan-21 00:00 Am  225.04219 -15.88398 224.20183 -14.96927 337.6319 -74.9587
 1923-Jan-31 00:00 Am  226.15956 -16.16942 224.94925 -15.23478  12.9534 -75.9134
 1923-Feb-10 00:00 N   227.02431 -16.37746 225.52975 -15.57573  43.3632 -72.2981
 1923-Feb-20 00:00 Nm  227.60784 -16.50512 225.99399 -15.82443  61.5832 -65.9092
 1923-Mar-02 00:00 Nm  227.88878 -16.55052 226.22912 -15.93932  72.6443 -58.2080
 1923-Mar-12 00:00 N   227.85706 -16.51374 226.17988 -15.93706  80.2511 -49.7836
 1923-Mar-22 00:00 Nm  227.51176 -16.39606 225.82996 -15.83210  86.1454 -40.8768
 1923-Apr-01 00:00 Cm  226.87217 -16.20245 225.19338 -15.63669  91.1801 -31.6229
 1923-Apr-11 00:00 C   225.97651 -15.94209 224.30608 -15.36390  95.8309 -22.1310
 1923-Apr-21 00:00 Cm  224.87964 -15.62830 223.22194 -15.02921 100.4095 -12.5127
 1923-May-01 00:00 Cm  223.65771 -15.28049 222.01735 -14.65332 105.1587  -2.9033
 1923-May-11 00:00 *   222.39456 -14.92183 221.21814 -14.52823 110.3059   6.0362
 1923-May-21 00:00 *m  221.17636 -14.57747 220.07675 -14.21736 116.0938  15.0512
